{
  "type": "FeatureCollection",
  "features": [
    {
      "type": "Feature",
      "properties": {
        "norad_id": 46432,
        "name": "COSMOS 2251 DEB",
        "group": "cosmos-2251-debris",
        "lat": -45.413368475610284,
        "lon": -40.715536738183154,
        "alt_km": 781.3692025921509,
        "timestamp": "2025-12-05T19:30:25.965581+00:00",
        "meta_object_name": "COSMOS 2251 DEB",
        "meta_object_id": "1993-036BWW",
        "meta_epoch": "2025-11-27T18:14:15.472320",
        "meta_mean_motion": 13.36590206,
        "meta_eccentricity": 0.04736106,
        "meta_inclination": 73.8709,
        "meta_ra_of_asc_node": 134.8972,
        "meta_arg_of_pericenter": 254.8276,
        "meta_mean_anomaly": 119.6249,
        "meta_ephemeris_type": 0,
        "meta_classification_type": "U",
        "meta_norad_cat_id": 46432,
        "meta_element_set_no": 999,
        "meta_rev_at_epoch": 66766,
        "meta_bstar": 0.00093134132,
        "meta_mean_motion_dot": 8.92e-06,
        "meta_mean_motion_ddot": 0,
        "tle_line1": "1 46432U 93036BWW 25331.75990130  .00000892  00000+0  93134-3 0  9999",
        "tle_line2": "2 46432  73.8709 134.8972 0473610 254.8276 119.6249 13.36590206667662"
      },
      "geometry": {
        "type": "Point",
        "coordinates": [
          -40.715536738183154,
          -45.413368475610284
        ]
      }
    },
    {
      "type": "Feature",
      "properties": {
        "norad_id": 47045,
        "name": "COSMOS 2251 DEB",
        "group": "cosmos-2251-debris",
        "lat": -60.3157231924176,
        "lon": 12.02286154010303,
        "alt_km": 757.9086527688496,
        "timestamp": "2025-12-05T19:30:25.965591+00:00",
        "meta_object_name": "COSMOS 2251 DEB",
        "meta_object_id": "1993-036BWZ",
        "meta_epoch": "2025-12-03T07:08:12.151968",
        "meta_mean_motion": 14.38891608,
        "meta_eccentricity": 0.0030084,
        "meta_inclination": 74.0566,
        "meta_ra_of_asc_node": 166.5562,
        "meta_arg_of_pericenter": 309.0569,
        "meta_mean_anomaly": 231.0781,
        "meta_ephemeris_type": 0,
        "meta_classification_type": "U",
        "meta_norad_cat_id": 47045,
        "meta_element_set_no": 999,
        "meta_rev_at_epoch": 7669,
        "meta_bstar": 0.00011844,
        "meta_mean_motion_dot": 3.4e-06,
        "meta_mean_motion_ddot": 0,
        "tle_line1": "1 47045U 93036BWZ 25337.29736287  .00000340  00000+0  11844-3 0  9992",
        "tle_line2": "2 47045  74.0566 166.5562 0030084 309.0569 231.0781 14.38891608 76696"
      },
      "geometry": {
        "type": "Point",
        "coordinates": [
          12.02286154010303,
          -60.3157231924176
        ]
      }
    },
    {
      "type": "Feature",
      "properties": {
        "norad_id": 47048,
        "name": "COSMOS 2251 DEB",
        "group": "cosmos-2251-debris",
        "lat": -18.444333642761322,
        "lon": 157.7936357286832,
        "alt_km": 647.0468557077184,
        "timestamp": "2025-12-05T19:30:25.965601+00:00",
        "meta_object_name": "COSMOS 2251 DEB",
        "meta_object_id": "1993-036BXC",
        "meta_epoch": "2025-12-04T08:10:39.254304",
        "meta_mean_motion": 14.52183959,
        "meta_eccentricity": 0.0133528,
        "meta_inclination": 73.9778,
        "meta_ra_of_asc_node": 335.0779,
        "meta_arg_of_pericenter": 165.1593,
        "meta_mean_anomaly": 260.296,
        "meta_ephemeris_type": 0,
        "meta_classification_type": "U",
        "meta_norad_cat_id": 47048,
        "meta_element_set_no": 999,
        "meta_rev_at_epoch": 59568,
        "meta_bstar": 0.002635,
        "meta_mean_motion_dot": 0.00012001,
        "meta_mean_motion_ddot": 0,
        "tle_line1": "1 47048U 93036BXC 25338.34073211  .00012001  00000+0  26350-2 0  9997",
        "tle_line2": "2 47048  73.9778 335.0779 0133528 165.1593 260.2960 14.52183959595687"
      },
      "geometry": {
        "type": "Point",
        "coordinates": [
          157.7936357286832,
          -18.444333642761322
        ]
      }
    },
    {
      "type": "Feature",
      "properties": {
        "norad_id": 47051,
        "name": "COSMOS 2251 DEB",
        "group": "cosmos-2251-debris",
        "lat": 52.96786202690772,
        "lon": -7.285414081579185,
        "alt_km": 1255.417114731622,
        "timestamp": "2025-12-05T19:30:25.965611+00:00",
        "meta_object_name": "COSMOS 2251 DEB",
        "meta_object_id": "1993-036BXF",
        "meta_epoch": "2025-12-01T21:55:10.667424",
        "meta_mean_motion": 13.67061051,
        "meta_eccentricity": 0.03413205,
        "meta_inclination": 74.1012,
        "meta_ra_of_asc_node": 201.2803,
        "meta_arg_of_pericenter": 317.1785,
        "meta_mean_anomaly": 62.4119,
        "meta_ephemeris_type": 0,
        "meta_classification_type": "U",
        "meta_norad_cat_id": 47051,
        "meta_element_set_no": 999,
        "meta_rev_at_epoch": 59790,
        "meta_bstar": 0.0015947644,
        "meta_mean_motion_dot": 1.973e-05,
        "meta_mean_motion_ddot": 0,
        "tle_line1": "1 47051U 93036BXF 25335.91331791  .00001973  00000+0  15948-2 0  9998",
        "tle_line2": "2 47051  74.1012 201.2803 0341320 317.1785  62.4119 13.67061051597908"
      },
      "geometry": {
        "type": "Point",
        "coordinates": [
          -7.285414081579185,
          52.96786202690772
        ]
      }
    },
    {
      "type": "Feature",
      "properties": {
        "norad_id": 47052,
        "name": "COSMOS 2251 DEB",
        "group": "cosmos-2251-debris",
        "lat": -70.31056884345682,
        "lon": -60.03129045913268,
        "alt_km": 815.3373358040999,
        "timestamp": "2025-12-05T19:30:25.965622+00:00",
        "meta_object_name": "COSMOS 2251 DEB",
        "meta_object_id": "1993-036BXG",
        "meta_epoch": "2025-11-29T08:23:30.956640",
        "meta_mean_motion": 14.35450474,
        "meta_eccentricity": 0.00577024,
        "meta_inclination": 74.0487,
        "meta_ra_of_asc_node": 4.8695,
        "meta_arg_of_pericenter": 82.9608,
        "meta_mean_anomaly": 293.3927,
        "meta_ephemeris_type": 0,
        "meta_classification_type": "U",
        "meta_norad_cat_id": 47052,
        "meta_element_set_no": 999,
        "meta_rev_at_epoch": 61597,
        "meta_bstar": 0.00022809202,
        "meta_mean_motion_dot": 6.42e-06,
        "meta_mean_motion_ddot": 0,
        "tle_line1": "1 47052U 93036BXG 25333.34966385  .00000642  00000+0  22809-3 0  9994",
        "tle_line2": "2 47052  74.0487   4.8695 0057702  82.9608 293.3927 14.35450474615976"
      },
      "geometry": {
        "type": "Point",
        "coordinates": [
          -60.03129045913268,
          -70.31056884345682
        ]
      }
    },
    {
      "type": "Feature",
      "properties": {
        "norad_id": 47053,
        "name": "COSMOS 2251 DEB",
        "group": "cosmos-2251-debris",
        "lat": 31.607936975456465,
        "lon": 75.14030995139859,
        "alt_km": 914.8363099892431,
        "timestamp": "2025-12-05T19:30:25.965659+00:00",
        "meta_object_name": "COSMOS 2251 DEB",
        "meta_object_id": "1993-036BXH",
        "meta_epoch": "2025-12-02T02:37:04.787616",
        "meta_mean_motion": 13.59615746,
        "meta_eccentricity": 0.03758539,
        "meta_inclination": 74.0601,
        "meta_ra_of_asc_node": 271.2609,
        "meta_arg_of_pericenter": 87.2254,
        "meta_mean_anomaly": 294.2026,
        "meta_ephemeris_type": 0,
        "meta_classification_type": "U",
        "meta_norad_cat_id": 47053,
        "meta_element_set_no": 999,
        "meta_rev_at_epoch": 28744,
        "meta_bstar": 0.0013831144,
        "meta_mean_motion_dot": 1.616e-05,
        "meta_mean_motion_ddot": 0,
        "tle_line1": "1 47053U 93036BXH 25336.10908319  .00001616  00000+0  13831-2 0  9991",
        "tle_line2": "2 47053  74.0601 271.2609 0375853  87.2254 294.2026 13.59615746287442"
      },
      "geometry": {
        "type": "Point",
        "coordinates": [
          75.14030995139859,
          31.607936975456465
        ]
      }
    },
    {
      "type": "Feature",
      "properties": {
        "norad_id": 47059,
        "name": "COSMOS 2251 DEB",
        "group": "cosmos-2251-debris",
        "lat": 25.467120803570168,
        "lon": 61.95669709190608,
        "alt_km": 531.4102056527818,
        "timestamp": "2025-12-05T19:30:25.965671+00:00",
        "meta_object_name": "COSMOS 2251 DEB",
        "meta_object_id": "1993-036BXP",
        "meta_epoch": "2025-11-30T02:15:08.813664",
        "meta_mean_motion": 15.10829083,
        "meta_eccentricity": 0.00120344,
        "meta_inclination": 73.9823,
        "meta_ra_of_asc_node": 261.6801,
        "meta_arg_of_pericenter": 69.4658,
        "meta_mean_anomaly": 304.3449,
        "meta_ephemeris_type": 0,
        "meta_classification_type": "U",
        "meta_norad_cat_id": 47059,
        "meta_element_set_no": 999,
        "meta_rev_at_epoch": 8114,
        "meta_bstar": 0.003761596,
        "meta_mean_motion_dot": 0.00063166,
        "meta_mean_motion_ddot": 0,
        "tle_line1": "1 47059U 93036BXP 25334.09385201  .00063166  00000+0  37616-2 0  9997",
        "tle_line2": "2 47059  73.9823 261.6801 0012034  69.4658 304.3449 15.10829083 81149"
      },
      "geometry": {
        "type": "Point",
        "coordinates": [
          61.95669709190608,
          25.467120803570168
        ]
      }
    }
  ]
}